[
    {
        "Altitude(m)": 554559.212626025,
        "Argument of Periapsis(deg)": 0.026491964442854003,
        "Eccentricity": 0.0,
        "Inclination(deg)": 53.0,
        "Latitude(deg)": 26.715043134369168,
        "Longitude(deg)": -55.3426237685241,
        "Mean Anomaly(deg)": -214.17902852968967,
        "RAAN(deg)": 249.9605734741121,
        "Satellite Name": "Starlink Shell 1 1106",
        "Satellite Number": 1106,
        "Semi-Major Axis(m)": 6931778.249405717,
        "Time(s)": 760
    },
    {
        "Altitude(m)": 554495.7175783337,
        "Argument of Periapsis(deg)": 0.02684054292236524,
        "Eccentricity": 0.0,
        "Inclination(deg)": 53.0,
        "Latitude(deg)": 26.24828412928641,
        "Longitude(deg)": -54.91426183025692,
        "Mean Anomaly(deg)": -213.55219732613293,
        "RAAN(deg)": 249.9600547040346,
        "Satellite Name": "Starlink Shell 1 1106",
        "Satellite Number": 1106,
        "Semi-Major Axis(m)": 6931778.249405717,
        "Time(s)": 770
    },
    {
        "Altitude(m)": 554433.7072504233,
        "Argument of Periapsis(deg)": 0.027189121401876473,
        "Eccentricity": 0.0,
        "Inclination(deg)": 53.0,
        "Latitude(deg)": 25.77997239822665,
        "Longitude(deg)": -54.489641380366145,
        "Mean Anomaly(deg)": -212.9253661225762,
        "RAAN(deg)": 249.95953593395714,
        "Satellite Name": "Starlink Shell 1 1106",
        "Satellite Number": 1106,
        "Semi-Major Axis(m)": 6931778.249405717,
        "Time(s)": 780
    },
    {
        "Altitude(m)": 554373.2313540353,
        "Argument of Periapsis(deg)": 0.02753769988138771,
        "Eccentricity": 0.0,
        "Inclination(deg)": 53.0,
        "Latitude(deg)": 25.310151130726975,
        "Longitude(deg)": -54.06866820444013,
        "Mean Anomaly(deg)": -212.29853491901952,
        "RAAN(deg)": 249.95901716387968,
        "Satellite Name": "Starlink Shell 1 1106",
        "Satellite Number": 1106,
        "Semi-Major Axis(m)": 6931778.249405717,
        "Time(s)": 790
    },
    {
        "Altitude(m)": 554314.339008711,
        "Argument of Periapsis(deg)": 0.02788627836089895,
        "Eccentricity": 0.0,
        "Inclination(deg)": 53.0,
        "Latitude(deg)": 24.838862620421438,
        "Longitude(deg)": -53.65124988500396,
        "Mean Anomaly(deg)": -211.67170371546283,
        "RAAN(deg)": 249.9584983938022,
        "Satellite Name": "Starlink Shell 1 1106",
        "Satellite Number": 1106,
        "Semi-Major Axis(m)": 6931778.249405717,
        "Time(s)": 800
    },
    {
        "Altitude(m)": 554257.078715341,
        "Argument of Periapsis(deg)": 0.02823485684041019,
        "Eccentricity": 0.0,
        "Inclination(deg)": 53.0,
        "Latitude(deg)": 24.366148292317458,
        "Longitude(deg)": -53.23729528465935,
        "Mean Anomaly(deg)": -211.0448725119061,
        "RAAN(deg)": 249.95797962372473,
        "Satellite Name": "Starlink Shell 1 1106",
        "Satellite Number": 1106,
        "Semi-Major Axis(m)": 6931778.249405717,
        "Time(s)": 810
    },
    {
        "Altitude(m)": 554201.4983299683,
        "Argument of Periapsis(deg)": 0.028583435319921423,
        "Eccentricity": 0.0,
        "Inclination(deg)": 53.0,
        "Latitude(deg)": 23.892048729544157,
        "Longitude(deg)": -52.82671402750675,
        "Mean Anomaly(deg)": -210.4180413083494,
        "RAAN(deg)": 249.95746085364723,
        "Satellite Name": "Starlink Shell 1 1106",
        "Satellite Number": 1106,
        "Semi-Major Axis(m)": 6931778.249405717,
        "Time(s)": 820
    },
    {
        "Altitude(m)": 554147.6450379118,
        "Argument of Periapsis(deg)": 0.028932013799432665,
        "Eccentricity": 0.0,
        "Inclination(deg)": 53.0,
        "Latitude(deg)": 23.416603699567798,
        "Longitude(deg)": -52.41941749187758,
        "Mean Anomaly(deg)": -209.79121010479264,
        "RAAN(deg)": 249.95694208356974,
        "Satellite Name": "Starlink Shell 1 1106",
        "Satellite Number": 1106,
        "Semi-Major Axis(m)": 6931778.249405717,
        "Time(s)": 830
    },
    {
        "Altitude(m)": 554095.5653281496,
        "Argument of Periapsis(deg)": 0.029280592278943897,
        "Eccentricity": 0.0,
        "Inclination(deg)": 53.0,
        "Latitude(deg)": 22.939852179877228,
        "Longitude(deg)": -52.01531828878242,
        "Mean Anomaly(deg)": -209.16437890123592,
        "RAAN(deg)": 249.9564233134923,
        "Satellite Name": "Starlink Shell 1 1106",
        "Satellite Number": 1106,
        "Semi-Major Axis(m)": 6931778.249405717,
        "Time(s)": 840
    },
    {
        "Altitude(m)": 554045.3049680315,
        "Argument of Periapsis(deg)": 0.029629170758455132,
        "Eccentricity": 0.0,
        "Inclination(deg)": 53.0,
        "Latitude(deg)": 22.46183238313893,
        "Longitude(deg)": -51.61432973908435,
        "Mean Anomaly(deg)": -208.53754769767923,
        "RAAN(deg)": 249.95590454341482,
        "Satellite Name": "Starlink Shell 1 1106",
        "Satellite Number": 1106,
        "Semi-Major Axis(m)": 6931778.249405717,
        "Time(s)": 850
    },
    {
        "Altitude(m)": 553996.9089783031,
        "Argument of Periapsis(deg)": 0.02997774923796637,
        "Eccentricity": 0.0,
        "Inclination(deg)": 53.0,
        "Latitude(deg)": 21.98258178182248,
        "Longitude(deg)": -51.216367030492435,
        "Mean Anomaly(deg)": -207.9107164941225,
        "RAAN(deg)": 249.95538577333733,
        "Satellite Name": "Starlink Shell 1 1106",
        "Satellite Number": 1106,
        "Semi-Major Axis(m)": 6931778.249405717,
        "Time(s)": 860
    },
    {
        "Altitude(m)": 553950.4216084867,
        "Argument of Periapsis(deg)": 0.030326327717477602,
        "Eccentricity": 0.0,
        "Inclination(deg)": 53.0,
        "Latitude(deg)": 21.50213713230496,
        "Longitude(deg)": -50.8213458520727,
        "Mean Anomaly(deg)": -207.28388529056582,
        "RAAN(deg)": 249.95486700325992,
        "Satellite Name": "Starlink Shell 1 1106",
        "Satellite Number": 1106,
        "Semi-Major Axis(m)": 6931778.249405717,
        "Time(s)": 870
    },
    {
        "Altitude(m)": 553905.8863125845,
        "Argument of Periapsis(deg)": 0.030674906196988847,
        "Eccentricity": 0.0,
        "Inclination(deg)": 53.0,
        "Latitude(deg)": 21.020534498453337,
        "Longitude(deg)": -50.42918354929175,
        "Mean Anomaly(deg)": -206.65705408700904,
        "RAAN(deg)": 249.95434823318243,
        "Satellite Name": "Starlink Shell 1 1106",
        "Satellite Number": 1106,
        "Semi-Major Axis(m)": 6931778.249405717,
        "Time(s)": 880
    },
    {
        "Altitude(m)": 553863.3457251696,
        "Argument of Periapsis(deg)": 0.031023484676500086,
        "Eccentricity": 0.0,
        "Inclination(deg)": 53.0,
        "Latitude(deg)": 20.537809274697242,
        "Longitude(deg)": -50.03979859727121,
        "Mean Anomaly(deg)": -206.0302228834524,
        "RAAN(deg)": 249.9538294631049,
        "Satellite Name": "Starlink Shell 1 1106",
        "Satellite Number": 1106,
        "Semi-Major Axis(m)": 6931778.249405717,
        "Time(s)": 890
    },
    {
        "Altitude(m)": 553822.8416378426,
        "Argument of Periapsis(deg)": 0.03137206315601132,
        "Eccentricity": 0.0,
        "Inclination(deg)": 53.0,
        "Latitude(deg)": 20.053996208595024,
        "Longitude(deg)": -49.65311007331483,
        "Mean Anomaly(deg)": -205.40339167989566,
        "RAAN(deg)": 249.95331069302748,
        "Satellite Name": "Starlink Shell 1 1106",
        "Satellite Number": 1106,
        "Semi-Major Axis(m)": 6931778.249405717,
        "Time(s)": 900
    },
    {
        "Altitude(m)": 553784.414976071,
        "Argument of Periapsis(deg)": 0.03172064163552255,
        "Eccentricity": 0.0,
        "Inclination(deg)": 53.0,
        "Latitude(deg)": 19.56912942290202,
        "Longitude(deg)": -49.269038641667656,
        "Mean Anomaly(deg)": -204.77656047633894,
        "RAAN(deg)": 249.95279192294998,
        "Satellite Name": "Starlink Shell 1 1106",
        "Satellite Number": 1106,
        "Semi-Major Axis(m)": 6931778.249405717,
        "Time(s)": 910
    },
    {
        "Altitude(m)": 553748.1057764448,
        "Argument of Periapsis(deg)": 0.0320692201150338,
        "Eccentricity": 0.0,
        "Inclination(deg)": 53.0,
        "Latitude(deg)": 19.08324243715115,
        "Longitude(deg)": -48.88750602483846,
        "Mean Anomaly(deg)": -204.14972927278222,
        "RAAN(deg)": 249.95227315287252,
        "Satellite Name": "Starlink Shell 1 1106",
        "Satellite Number": 1106,
        "Semi-Major Axis(m)": 6931778.249405717,
        "Time(s)": 920
    },
    {
        "Altitude(m)": 553713.9531643364,
        "Argument of Periapsis(deg)": 0.032417798594545036,
        "Eccentricity": 0.0,
        "Inclination(deg)": 53.0,
        "Latitude(deg)": 18.59636818875464,
        "Longitude(deg)": -48.508434474432896,
        "Mean Anomaly(deg)": -203.52289806922548,
        "RAAN(deg)": 249.95175438279506,
        "Satellite Name": "Starlink Shell 1 1106",
        "Satellite Number": 1106,
        "Semi-Major Axis(m)": 6931778.249405717,
        "Time(s)": 930
    },
    {
        "Altitude(m)": 553681.9953319755,
        "Argument of Periapsis(deg)": 0.03276637707405627,
        "Eccentricity": 0.0,
        "Inclination(deg)": 53.0,
        "Latitude(deg)": 18.108539053634832,
        "Longitude(deg)": -48.1317477544347,
        "Mean Anomaly(deg)": -202.89606686566879,
        "RAAN(deg)": 249.95123561271757,
        "Satellite Name": "Starlink Shell 1 1106",
        "Satellite Number": 1106,
        "Semi-Major Axis(m)": 6931778.249405717,
        "Time(s)": 940
    }
]